{
  "type": "FeatureCollection",
  "features": [
    {
      "type": "Feature",
      "properties": {
        "norad_id": 66475,
        "name": "STARLINK-35538",
        "group": "last-30-days",
        "lat": 29.952153473447883,
        "lon": -156.23433629520213,
        "alt_km": 444.74281923738636,
        "timestamp": "2025-12-14T07:33:18.185769+00:00",
        "meta_object_name": "STARLINK-35538",
        "meta_object_id": "2025-262V",
        "meta_epoch": "2025-12-13T14:00:03.000384",
        "meta_mean_motion": 15.42070453,
        "meta_eccentricity": 0.0001144,
        "meta_inclination": 43.0004,
        "meta_ra_of_asc_node": 66.1775,
        "meta_arg_of_pericenter": 273.6819,
        "meta_mean_anomaly": 117.823,
        "meta_ephemeris_type": 0,
        "meta_classification_type": "U",
        "meta_norad_cat_id": 66475,
        "meta_element_set_no": 999,
        "meta_rev_at_epoch": 577,
        "meta_bstar": -0.048281592,
        "meta_mean_motion_dot": -0.01892988,
        "meta_mean_motion_ddot": 0,
        "tle_line1": "1 66475U 25262V   25347.58336806 -.01892988  00000+0 -48282-1 0  9996",
        "tle_line2": "2 66475  43.0004  66.1775 0001144 273.6819 117.8230 15.42070453  5771"
      },
      "geometry": {
        "type": "Point",
        "coordinates": [
          -156.23433629520213,
          29.952153473447883
        ]
      }
    },
    {
      "type": "Feature",
      "properties": {
        "norad_id": 66476,
        "name": "STARLINK-35372",
        "group": "last-30-days",
        "lat": 21.9023778081526,
        "lon": -143.63013942426772,
        "alt_km": 441.4333383611638,
        "timestamp": "2025-12-14T07:33:18.185779+00:00",
        "meta_object_name": "STARLINK-35372",
        "meta_object_id": "2025-262W",
        "meta_epoch": "2025-12-13T14:00:03.000384",
        "meta_mean_motion": 15.43332736,
        "meta_eccentricity": 0.00012971,
        "meta_inclination": 43.0005,
        "meta_ra_of_asc_node": 66.1526,
        "meta_arg_of_pericenter": 275.9761,
        "meta_mean_anomaly": 125.7268,
        "meta_ephemeris_type": 0,
        "meta_classification_type": "U",
        "meta_norad_cat_id": 66476,
        "meta_element_set_no": 999,
        "meta_rev_at_epoch": 566,
        "meta_bstar": -0.041806154,
        "meta_mean_motion_dot": -0.01699941,
        "meta_mean_motion_ddot": 0,
        "tle_line1": "1 66476U 25262W   25347.58336806 -.01699941  00000+0 -41806-1 0  9996",
        "tle_line2": "2 66476  43.0005  66.1526 0001297 275.9761 125.7268 15.43332736  5660"
      },
      "geometry": {
        "type": "Point",
        "coordinates": [
          -143.63013942426772,
          21.9023778081526
        ]
      }
    },
    {
      "type": "Feature",
      "properties": {
        "norad_id": 66477,
        "name": "STARLINK-35354",
        "group": "last-30-days",
        "lat": 7.097177906889757,
        "lon": -125.80767748848031,
        "alt_km": 437.2205812269722,
        "timestamp": "2025-12-14T07:33:18.185790+00:00",
        "meta_object_name": "STARLINK-35354",
        "meta_object_id": "2025-262X",
        "meta_epoch": "2025-12-13T14:00:03.000384",
        "meta_mean_motion": 15.46143329,
        "meta_eccentricity": 0.00018233,
        "meta_inclination": 43.0004,
        "meta_ra_of_asc_node": 66.1101,
        "meta_arg_of_pericenter": 281.6882,
        "meta_mean_anomaly": 136.187,
        "meta_ephemeris_type": 0,
        "meta_classification_type": "U",
        "meta_norad_cat_id": 66477,
        "meta_element_set_no": 999,
        "meta_rev_at_epoch": 577,
        "meta_bstar": -0.047582313,
        "meta_mean_motion_dot": -0.02116872,
        "meta_mean_motion_ddot": 0,
        "tle_line1": "1 66477U 25262X   25347.58336806 -.02116872  00000+0 -47582-1 0  9992",
        "tle_line2": "2 66477  43.0004  66.1101 0001823 281.6882 136.1870 15.46143329  5770"
      },
      "geometry": {
        "type": "Point",
        "coordinates": [
          -125.80767748848031,
          7.097177906889757
        ]
      }
    },
    {
      "type": "Feature",
      "properties": {
        "norad_id": 66478,
        "name": "STARLINK-35283",
        "group": "last-30-days",
        "lat": -3.9386326943051615,
        "lon": -113.93430745333593,
        "alt_km": 421.5376085939106,
        "timestamp": "2025-12-14T07:33:18.185800+00:00",
        "meta_object_name": "STARLINK-35283",
        "meta_object_id": "2025-262Y",
        "meta_epoch": "2025-12-13T12:10:39.270144",
        "meta_mean_motion": 15.48487445,
        "meta_eccentricity": 0.00016869,
        "meta_inclination": 42.9995,
        "meta_ra_of_asc_node": 66.5358,
        "meta_arg_of_pericenter": 197.4595,
        "meta_mean_anomaly": 162.6207,
        "meta_ephemeris_type": 0,
        "meta_classification_type": "U",
        "meta_norad_cat_id": 66478,
        "meta_element_set_no": 999,
        "meta_rev_at_epoch": 568,
        "meta_bstar": -0.0049438939,
        "meta_mean_motion_dot": -0.00260886,
        "meta_mean_motion_ddot": 0,
        "tle_line1": "1 66478U 25262Y   25347.50739896 -.00260886  00000+0 -49439-2 0  9998",
        "tle_line2": "2 66478  42.9995  66.5358 0001686 197.4595 162.6207 15.48487445  5688"
      },
      "geometry": {
        "type": "Point",
        "coordinates": [
          -113.93430745333593,
          -3.9386326943051615
        ]
      }
    },
    {
      "type": "Feature",
      "properties": {
        "norad_id": 66479,
        "name": "STARLINK-35581",
        "group": "last-30-days",
        "lat": -11.895594125773062,
        "lon": -105.1368661669825,
        "alt_km": 408.8577906884584,
        "timestamp": "2025-12-14T07:33:18.185811+00:00",
        "meta_object_name": "STARLINK-35581",
        "meta_object_id": "2025-262Z",
        "meta_epoch": "2025-12-13T05:59:05.063424",
        "meta_mean_motion": 15.51254865,
        "meta_eccentricity": 0.00137264,
        "meta_inclination": 43.0014,
        "meta_ra_of_asc_node": 68.0399,
        "meta_arg_of_pericenter": 252.2505,
        "meta_mean_anomaly": 107.6857,
        "meta_ephemeris_type": 0,
        "meta_classification_type": "U",
        "meta_norad_cat_id": 66479,
        "meta_element_set_no": 999,
        "meta_rev_at_epoch": 564,
        "meta_bstar": 0.0027040297,
        "meta_mean_motion_dot": 0.00166209,
        "meta_mean_motion_ddot": 0,
        "tle_line1": "1 66479U 25262Z   25347.24936416  .00166209  00000+0  27040-2 0  9993",
        "tle_line2": "2 66479  43.0014  68.0399 0013726 252.2505 107.6857 15.51254865  5642"
      },
      "geometry": {
        "type": "Point",
        "coordinates": [
          -105.1368661669825,
          -11.895594125773062
        ]
      }
    },
    {
      "type": "Feature",
      "properties": {
        "norad_id": 66480,
        "name": "STARLINK-35670",
        "group": "last-30-days",
        "lat": -9.99771379840335,
        "lon": -107.28950664944448,
        "alt_km": 415.78480147537084,
        "timestamp": "2025-12-14T07:33:18.185822+00:00",
        "meta_object_name": "STARLINK-35670",
        "meta_object_id": "2025-262AA",
        "meta_epoch": "2025-12-13T12:09:33.701184",
        "meta_mean_motion": 15.49778554,
        "meta_eccentricity": 0.0008547,
        "meta_inclination": 43.0054,
        "meta_ra_of_asc_node": 66.5302,
        "meta_arg_of_pericenter": 122.056,
        "meta_mean_anomaly": 238.1131,
        "meta_ephemeris_type": 0,
        "meta_classification_type": "U",
        "meta_norad_cat_id": 66480,
        "meta_element_set_no": 999,
        "meta_rev_at_epoch": 568,
        "meta_bstar": 0.0011549911,
        "meta_mean_motion_dot": 0.00066164,
        "meta_mean_motion_ddot": 0,
        "tle_line1": "1 66480U 25262AA  25347.50664006  .00066164  00000+0  11550-2 0  9995",
        "tle_line2": "2 66480  43.0054  66.5302 0008547 122.0560 238.1131 15.49778554  5687"
      },
      "geometry": {
        "type": "Point",
        "coordinates": [
          -107.28950664944448,
          -9.99771379840335
        ]
      }
    },
    {
      "type": "Feature",
      "properties": {
        "norad_id": 66481,
        "name": "STARLINK-35698",
        "group": "last-30-days",
        "lat": -13.25153673084985,
        "lon": -103.56812529716989,
        "alt_km": 415.69537143886373,
        "timestamp": "2025-12-14T07:33:18.185832+00:00",
        "meta_object_name": "STARLINK-35698",
        "meta_object_id": "2025-262AB",
        "meta_epoch": "2025-12-13T12:08:51.690912",
        "meta_mean_motion": 15.50572989,
        "meta_eccentricity": 0.00025506,
        "meta_inclination": 43.0015,
        "meta_ra_of_asc_node": 66.5256,
        "meta_arg_of_pericenter": 278.3565,
        "meta_mean_anomaly": 81.7006,
        "meta_ephemeris_type": 0,
        "meta_classification_type": "U",
        "meta_norad_cat_id": 66481,
        "meta_element_set_no": 999,
        "meta_rev_at_epoch": 568,
        "meta_bstar": 0.0017837298,
        "meta_mean_motion_dot": 0.00105708,
        "meta_mean_motion_ddot": 0,
        "tle_line1": "1 66481U 25262AB  25347.50615383  .00105708  00000+0  17837-2 0  9992",
        "tle_line2": "2 66481  43.0015  66.5256 0002550 278.3565  81.7006 15.50572989  5680"
      },
      "geometry": {
        "type": "Point",
        "coordinates": [
          -103.56812529716989,
          -13.25153673084985
        ]
      }
    }
  ]
}